{
    "type": "FeatureCollection",
    "features": [
        {
            "type": "Feature",
            "properties": {},
            "geometry": {
                "type": "Polygon",
                "coordinates": [[
                    [-79.76195572267673, 42.26872153005627],
                    [-79.76195572267673, 45.015870524557556],
                    [-71.66878968312145, 45.015870524557556],
                    [-71.66878968312145, 40.476578082629224],
                    [-74.75046284358304, 40.476578082629224],
                    [-79.76195572267673, 42.26872153005627]
                ]]
            }
        }
    ]
} 