{
    "type": "Feature",
    "properties": {},
    "geometry": {
        "type": "Polygon",
        "coordinates": [[
            [-79.76195572267673, 42.26902286553834],
            [-79.06200408935547, 42.00032514831623],
            [-78.92523193359375, 42.71473218539458],
            [-76.69754028320312, 43.12504316740127],
            [-76.2652587890625, 43.45291889355465],
            [-76.19316101074219, 43.80125522464154],
            [-75.99899291992188, 44.35527821160296],
            [-74.86373901367188, 45.058001435398275],
            [-73.34243774414062, 45.00738133063904],
            [-73.42529296875, 44.28034702222753],
            [-73.30780029296875, 43.77109381775651],
            [-73.26385498046875, 42.97647193963183],
            [-73.37585449218749, 42.41940144722477],
            [-73.6273193359375, 42.00032514831623],
            [-73.5430908203125, 41.39479491431615],
            [-74.75173950195312, 41.35877066437342],
            [-75.35858154296875, 41.77131167976407],
            [-77.62603759765625, 42.00032514831623],
            [-79.76195572267673, 42.26902286553834]
        ]]
    }
} 