{
  "type": "FeatureCollection",
  "features": [
    {
      "type": "Feature",
      "properties": {},
      "geometry": {
        "coordinates": [
          [
            [
              -78.14011181634586,
              41.99654240517802
            ],
            [
              -75.70717674615904,
              42.00220972694177
            ],
            [
              -75.78297452708559,
              42.168805567025544
            ],
            [
              -76.0306561384227,
              42.36427445712951
            ],
            [
              -76.4135904664618,
              42.50804814563756
            ],
            [
              -76.50896813988624,
              42.45452134422047
            ],
            [
              -76.5518856338228,
              42.49594362224076
            ],
            [
              -76.62450960428927,
              42.537347501333386
            ],
            [
              -76.69721931170619,
              42.62490300884383
            ],
            [
              -76.76660410602388,
              42.70748160827773
            ],
            [
              -76.75990376328134,
              42.8360706230784
            ],
            [
              -76.75988252040678,
              42.86757498691534
            ],
            [
              -76.76310278645597,
              42.94751376766283
            ],
            [
              -76.84241212935433,
              42.930575252205074
            ],
            [
              -76.90851978845082,
              42.889408503174394
            ],
            [
              -76.90860300213915,
              42.751194737782015
            ],
            [
              -76.8459086462188,
              42.68075946478649
            ],
            [
              -76.86262132822706,
              42.50561844466094
            ],
            [
              -76.84942575895457,
              42.3764723536234
            ],
            [
              -76.88578482321942,
              42.376470254794896
            ],
            [
              -76.93196384842163,
              42.483706055567325
            ],
            [
              -76.93511927354872,
              42.65159600824313
            ],
            [
              -76.97470875789946,
              42.6759206144892
            ],
            [
              -76.99773008294477,
              42.799256718175656
            ],
            [
              -76.99769716259196,
              42.893784746158815
            ],
            [
              -77.05059691536465,
              42.86226015632249
            ],
            [
              -77.02757190748432,
              42.653526629506615
            ],
            [
              -77.10364230765673,
              42.473441251142134
            ],
            [
              -77.16966657694523,
              42.407651963341806
            ],
            [
              -77.23573971720603,
              42.395447641921436
            ],
            [
              -77.18287234151738,
              42.48806924002881
            ],
            [
              -77.16303564244183,
              42.58542999440235
            ],
            [
              -77.16301388672011,
              42.777284268114556
            ],
            [
              -77.21584812772339,
              42.84760068378063
            ],
            [
              -77.29185123339657,
              42.71414688650816
            ],
            [
              -77.37771860510753,
              42.641196103729754
            ],
            [
              -77.37111080219772,
              42.71173198859918
            ],
            [
              -77.30175388237713,
              42.82811681295536
            ],
            [
              -77.29512932107335,
              42.879079341963575
            ],
            [
              -77.45368515597599,
              42.803940695256614
            ],
            [
              -77.5559819612746,
              42.65575241652155
            ],
            [
              -77.61875646691455,
              42.64368211107535
            ],
            [
              -77.64190384193566,
              42.75051375020888
            ],
            [
              -77.6122514642978,
              42.808829439965166
            ],
            [
              -77.58915391282278,
              42.90818205404685
            ],
            [
              -77.65849386666267,
              42.80882192193721
            ],
            [
              -77.69146483746025,
              42.714160918716544
            ],
            [
              -77.7377201185004,
              42.70204633386501
            ],
            [
              -77.74109657090037,
              42.82823451442721
            ],
            [
              -77.93891062184139,
              42.56099307896767
            ],
            [
              -78.09722454756862,
              42.22179703482746
            ],
            [
              -78.14011181634586,
              41.99654240517802
            ]
          ]
        ],
        "type": "Polygon"
      }
    }
  ]
}